IRIDIUM 113             
1 42803U 17039A   26198.58966624  .00000070  00000+0  17791-4 0  9994
2 42803  86.3992 309.4724 0002146  92.9287 267.2154 14.34217647475546
NORSAT 2                
1 42828U 17042D   26198.72638205  .00004683  00000+0  20527-3 0  9996
2 42828  97.4059  11.6969 0008085 307.8844  52.1660 15.22453790492381
TECHNOSAT               
1 42829U 17042E   26198.36696889  .00001444  00000+0  10531-3 0  9995
2 42829  97.4321 354.8846 0017222 356.4574   3.6528 15.05118204491240
FLYING LAPTOP           
1 42831U 17042G   26198.71276133  .00002081  00000+0  16558-3 0  9996
2 42831  97.4819 353.0993 0019601  24.4623 335.7527 15.01323225491031
WNISAT 1R               
1 42835U 17042L   26198.67402286  .00000282  00000+0  26017-4 0  9998
2 42835  97.4819 353.7071 0010535  56.9301 303.2934 15.01860404491081
LEMUR-2-GREENBERG       
1 42837U 17042N   26198.46334877  .00009265  00000+0  30030-3 0  9996
2 42837  97.3832  18.9701 0007286 249.8308 110.2151 15.32196006493023
LEMUR-2-FURIAUS         
1 42840U 17042R   26198.73919141  .00008477  00000+0  28385-3 0  9997
2 42840  97.3782  17.1311 0005770 318.6240  41.4564 15.31180191492888
CORVUS BC2              
1 42846U 17042X   26198.68430619  .00001076  00000+0  76839-4 0  9991
2 42846  97.4093 358.8567 0013197  14.6637 345.4971 15.06462559491659
CORVUS BC1              
1 42847U 17042Y   26198.40990491  .00001496  00000+0  10483-3 0  9999
2 42847  97.4124 359.4265 0011421 352.1585   7.9462 15.06626122491649
VRSS-2                  
1 42954U 17060A   26198.72120800  .00000349  00000+0  51147-4 0  9991
2 42954  97.6492 235.0714 0017214   5.5568 354.5833 14.81239205472974
MOHAMMED VI-A           
1 43005U 17070A   26198.69474050  .00000547  00000+0  84576-4 0  9997
2 43005  97.9547 270.6041 0001235  96.0723 264.0628 14.77104778468487
FENGYUN 3D              
1 43010U 17072A   26198.73335352 -.00000406  00000+0 -17016-3 0  9991
2 43010  99.0147 173.7108 0001424   9.5878 350.5324 14.19743350449326
NOAA 20 (JPSS-1)        
1 43013U 17073A   26198.66285300  .00000021  00000+0  31056-4 0  9996
2 43013  98.7772 137.8556 0001479 121.8101 238.3219 14.19516723448792
MAKERSAT 0              
1 43016U 17073D   26198.40994389  .00011512  00000+0  30369-3 0  9997
2 43016  97.4574  81.1775 0105553 164.4001 196.0537 15.33060135471095
RADFXSAT (FOX-1B)       
1 43017U 17073E   26198.56599502  .00003831  00000+0  16851-3 0  9998
2 43017  97.4662  65.1618 0148332 223.2065 135.7454 15.13080744469987
JILIN-1 04              
1 43022U 17074A   26198.69929468  .00007849  00000+0  17905-3 0  9991
2 43022  97.4881 309.1449 0005222  94.1018 266.0826 15.43173050478978
JILIN-1 05              
1 43023U 17074B   26198.71248823  .00004328  00000+0  13272-3 0  9996
2 43023  97.4884 305.2917 0006540 117.6973 242.4934 15.34308472478688
JILIN-1 06              
1 43024U 17074C   26198.68887294  .00003286  00000+0  10225-3 0  9991
2 43024  97.4809 302.2360 0008233 126.7346 233.4653 15.34013033478517
IRIDIUM 116             
1 43072U 17083C   26198.28522066  .00000125  00000+0  37483-4 0  9998
2 43072  86.3985 309.4198 0002498  97.5580 262.5899 14.34218141448486
IRIDIUM 130             
1 43073U 17083D   26198.60235351  .00000138  00000+0  42110-4 0  9990
2 43073  86.3994 309.5657 0002316 100.5746 259.5711 14.34218479448478
LKW-2                   
1 43080U 17084A   26198.70599634  .00003935  00000+0  15242-3 0  9990
2 43080  97.1170 237.0803 0003682 114.4539 245.7085 15.26709784476345
SUPERVIEW-1 03          
1 43099U 18002A   26198.70931480  .00011273  00000+0  27145-3 0  9999
2 43099  97.3127 283.5203 0046756  72.3213 288.3130 15.40270657473067
CARTOSAT-2F             
1 43111U 18004A   26198.70378569  .00002627  00000+0  12815-3 0  9990
2 43111  97.4767 258.0379 0002380 129.0984 231.0462 15.19185190471967
LKW-3                   
1 43146U 18006A   26198.74706034  .00006138  00000+0  17883-3 0  9997
2 43146  97.6644   0.5320 0003252 169.9911 190.1397 15.35780907473407
ASNARO-2                
1 43152U 18007A   26198.74934022  .00004542  00000+0  19957-3 0  9996
2 43152  97.3975 205.1994 0001749  91.3374 268.8063 15.22410544472065
JILIN-1 07              
1 43159U 18008E   26198.66716405  .00004497  00000+0  13388-3 0  9999
2 43159  97.1765 217.7916 0006511 317.3208  42.7530 15.35187702469671
JILIN-1 08              
1 43160U 18008F   26198.68906645  .00003072  00000+0  95615-4 0  9992
2 43160  97.1802 217.0945 0005011 342.6413  17.4658 15.34026049469623
S-NET D                 
1 43186U 18014G   26198.60997463  .00002521  00000+0  13124-3 0  9999
2 43186  97.5327 103.2117 0006215 274.2830  85.7692 15.16929875463375
S-NET B                 
1 43187U 18014H   26198.62202689  .00002508  00000+0  13071-3 0  9997
2 43187  97.5333 103.2112 0006833 268.3508  91.6942 15.16899456463375
S-NET A                 
1 43188U 18014J   26198.60868444  .00002499  00000+0  13012-3 0  9997
2 43188  97.5341 103.4127 0006726 269.2169  90.8294 15.16938167463371
