OBJECT_NAME,OBJECT_ID,EPOCH,MEAN_MOTION,ECCENTRICITY,INCLINATION,RA_OF_ASC_NODE,ARG_OF_PERICENTER,MEAN_ANOMALY,EPHEMERIS_TYPE,CLASSIFICATION_TYPE,NORAD_CAT_ID,ELEMENT_SET_NO,REV_AT_EPOCH,BSTAR,MEAN_MOTION_DOT,MEAN_MOTION_DDOT
IRIDIUM 113,2017-039A,2026-07-17T14:09:07.163136,14.34217647,.0002146,86.3992,309.4724,92.9287,267.2154,0,U,42803,999,47554,.17791E-4,.7E-6,0
NORSAT 2,2017-042D,2026-07-17T17:25:59.409120,15.22453790,.0008085,97.4059,11.6969,307.8844,52.1660,0,U,42828,999,49238,.20527E-3,.4683E-4,0
TECHNOSAT,2017-042E,2026-07-17T08:48:26.112096,15.05118204,.0017222,97.4321,354.8846,356.4574,3.6528,0,U,42829,999,49124,.10531E-3,.1444E-4,0
FLYING LAPTOP,2017-042G,2026-07-17T17:06:22.578912,15.01323225,.0019601,97.4819,353.0993,24.4623,335.7527,0,U,42831,999,49103,.16558E-3,.2081E-4,0
WNISAT 1R,2017-042L,2026-07-17T16:10:35.575104,15.01860404,.0010535,97.4819,353.7071,56.9301,303.2934,0,U,42835,999,49108,.26017E-4,.282E-5,0
LEMUR-2-GREENBERG,2017-042N,2026-07-17T11:07:13.333728,15.32196006,.0007286,97.3832,18.9701,249.8308,110.2151,0,U,42837,999,49302,.3003E-3,.9265E-4,0
LEMUR-2-FURIAUS,2017-042R,2026-07-17T17:44:26.137824,15.31180191,.000577,97.3782,17.1311,318.6240,41.4564,0,U,42840,999,49288,.28385E-3,.8477E-4,0
CORVUS BC2,2017-042X,2026-07-17T16:25:24.054816,15.06462559,.0013197,97.4093,358.8567,14.6637,345.4971,0,U,42846,999,49165,.76839E-4,.1076E-4,0
CORVUS BC1,2017-042Y,2026-07-17T09:50:15.784224,15.06626122,.0011421,97.4124,359.4265,352.1585,7.9462,0,U,42847,999,49164,.10483E-3,.1496E-4,0
VRSS-2,2017-060A,2026-07-17T17:18:32.371200,14.81239205,.0017214,97.6492,235.0714,5.5568,354.5833,0,U,42954,999,47297,.51147E-4,.349E-5,0
MOHAMMED VI-A,2017-070A,2026-07-17T16:40:25.579200,14.77104778,.0001235,97.9547,270.6041,96.0723,264.0628,0,U,43005,999,46848,.84576E-4,.547E-5,0
FENGYUN 3D,2017-072A,2026-07-17T17:36:01.744128,14.19743350,.0001424,99.0147,173.7108,9.5878,350.5324,0,U,43010,999,44932,-.17016E-3,-.406E-5,0
NOAA 20 (JPSS-1),2017-073A,2026-07-17T15:54:30.499200,14.19516723,.0001479,98.7772,137.8556,121.8101,238.3219,0,U,43013,999,44879,.31056E-4,.21E-6,0
MAKERSAT 0,2017-073D,2026-07-17T09:50:19.152096,15.33060135,.0105553,97.4574,81.1775,164.4001,196.0537,0,U,43016,999,47109,.30369E-3,.11512E-3,0
RADFXSAT (FOX-1B),2017-073E,2026-07-17T13:35:01.969728,15.13080744,.0148332,97.4662,65.1618,223.2065,135.7454,0,U,43017,999,46998,.16851E-3,.3831E-4,0
JILIN-1 04,2017-074A,2026-07-17T16:46:59.060352,15.43173050,.0005222,97.4881,309.1449,94.1018,266.0826,0,U,43022,999,47897,.17905E-3,.7849E-4,0
JILIN-1 05,2017-074B,2026-07-17T17:05:58.983072,15.34308472,.000654,97.4884,305.2917,117.6973,242.4934,0,U,43023,999,47868,.13272E-3,.4328E-4,0
JILIN-1 06,2017-074C,2026-07-17T16:31:58.622016,15.34013033,.0008233,97.4809,302.2360,126.7346,233.4653,0,U,43024,999,47851,.10225E-3,.3286E-4,0
IRIDIUM 116,2017-083C,2026-07-17T06:50:43.065024,14.34218141,.0002498,86.3985,309.4198,97.5580,262.5899,0,U,43072,999,44848,.37483E-4,.125E-5,0
IRIDIUM 130,2017-083D,2026-07-17T14:27:23.343264,14.34218479,.0002316,86.3994,309.5657,100.5746,259.5711,0,U,43073,999,44847,.4211E-4,.138E-5,0
LKW-2,2017-084A,2026-07-17T16:56:38.083776,15.26709784,.0003682,97.1170,237.0803,114.4539,245.7085,0,U,43080,999,47634,.15242E-3,.3935E-4,0
SUPERVIEW-1 03,2018-002A,2026-07-17T17:01:24.798720,15.40270657,.0046756,97.3127,283.5203,72.3213,288.3130,0,U,43099,999,47306,.27145E-3,.11273E-3,0
CARTOSAT-2F,2018-004A,2026-07-17T16:53:27.083616,15.19185190,.000238,97.4767,258.0379,129.0984,231.0462,0,U,43111,999,47196,.12815E-3,.2627E-4,0
LKW-3,2018-006A,2026-07-17T17:55:46.013376,15.35780907,.0003252,97.6644,0.5320,169.9911,190.1397,0,U,43146,999,47340,.17883E-3,.6138E-4,0
ASNARO-2,2018-007A,2026-07-17T17:59:02.995008,15.22410544,.0001749,97.3975,205.1994,91.3374,268.8063,0,U,43152,999,47206,.19957E-3,.4542E-4,0
JILIN-1 07,2018-008E,2026-07-17T16:00:42.973920,15.35187702,.0006511,97.1765,217.7916,317.3208,42.7530,0,U,43159,999,46967,.13388E-3,.4497E-4,0
JILIN-1 08,2018-008F,2026-07-17T16:32:15.341280,15.34026049,.0005011,97.1802,217.0945,342.6413,17.4658,0,U,43160,999,46962,.95615E-4,.3072E-4,0
S-NET D,2018-014G,2026-07-17T14:38:21.808032,15.16929875,.0006215,97.5327,103.2117,274.2830,85.7692,0,U,43186,999,46337,.13124E-3,.2521E-4,0
S-NET B,2018-014H,2026-07-17T14:55:43.123296,15.16899456,.0006833,97.5333,103.2112,268.3508,91.6942,0,U,43187,999,46337,.13071E-3,.2508E-4,0
S-NET A,2018-014J,2026-07-17T14:36:30.335616,15.16938167,.0006726,97.5341,103.4127,269.2169,90.8294,0,U,43188,999,46337,.13012E-3,.2499E-4,0
